[
    {
        "Altitude(m)": 607886.6646997414,
        "Argument of Periapsis(deg)": 0.0,
        "Eccentricity": 0.0,
        "Inclination(deg)": 60.0,
        "Latitude(deg)": 40.99837120128682,
        "Longitude(deg)": -90.02704343578526,
        "Mean Anomaly(deg)": -310.9091,
        "RAAN(deg)": 340.00000000000006,
        "Satellite Name": "Test1 1499",
        "Satellite Number": 1499,
        "Semi-Major Axis(m)": 6980739.136638005,
        "Time(s)": 0
    },
    {
        "Altitude(m)": 607987.5787709682,
        "Argument of Periapsis(deg)": 0.00010418945913296404,
        "Eccentricity": 0.0,
        "Inclination(deg)": 60.0,
        "Latitude(deg)": 41.46346152169743,
        "Longitude(deg)": -89.52281650213654,
        "Mean Anomaly(deg)": -310.2889938545382,
        "RAAN(deg)": 339.99957995086027,
        "Satellite Name": "Test1 1499",
        "Satellite Number": 1499,
        "Semi-Major Axis(m)": 6980739.136638005,
        "Time(s)": 10
    },
    {
        "Altitude(m)": 608088.5424720325,
        "Argument of Periapsis(deg)": 0.0002083789182659281,
        "Eccentricity": 0.0,
        "Inclination(deg)": 60.0,
        "Latitude(deg)": 41.92588767782595,
        "Longitude(deg)": -89.0107665881232,
        "Mean Anomaly(deg)": -309.6688877090764,
        "RAAN(deg)": 339.99915990172053,
        "Satellite Name": "Test1 1499",
        "Satellite Number": 1499,
        "Semi-Major Axis(m)": 6980739.136638005,
        "Time(s)": 20
    },
    {
        "Altitude(m)": 608189.4925816203,
        "Argument of Periapsis(deg)": 0.00031256837739889213,
        "Eccentricity": 0.0,
        "Inclination(deg)": 60.0,
        "Latitude(deg)": 42.385568920431645,
        "Longitude(deg)": -88.4906976534399,
        "Mean Anomaly(deg)": -309.0487815636145,
        "RAAN(deg)": 339.9987398525808,
        "Satellite Name": "Test1 1499",
        "Satellite Number": 1499,
        "Semi-Major Axis(m)": 6980739.136638005,
        "Time(s)": 30
    },
    {
        "Altitude(m)": 608290.366105153,
        "Argument of Periapsis(deg)": 0.0004167578365318562,
        "Eccentricity": 0.0,
        "Inclination(deg)": 60.0,
        "Latitude(deg)": 42.842421953246294,
        "Longitude(deg)": -87.96240979106324,
        "Mean Anomaly(deg)": -308.4286754181527,
        "RAAN(deg)": 339.99831980344106,
        "Satellite Name": "Test1 1499",
        "Satellite Number": 1499,
        "Semi-Major Axis(m)": 6980739.136638005,
        "Time(s)": 40
    },
    {
        "Altitude(m)": 608391.1003060108,
        "Argument of Periapsis(deg)": 0.0005209472956648203,
        "Eccentricity": 0.0,
        "Inclination(deg)": 60.0,
        "Latitude(deg)": 43.29636085358836,
        "Longitude(deg)": -87.42570032226625,
        "Mean Anomaly(deg)": -307.8085692726908,
        "RAAN(deg)": 339.99789975430133,
        "Satellite Name": "Test1 1499",
        "Satellite Number": 1499,
        "Semi-Major Axis(m)": 6980739.136638005,
        "Time(s)": 50
    },
    {
        "Altitude(m)": 608491.6327366391,
        "Argument of Periapsis(deg)": 0.0006251367547977843,
        "Eccentricity": 0.0,
        "Inclination(deg)": 60.0,
        "Latitude(deg)": 43.74729699226683,
        "Longitude(deg)": -86.88036339853073,
        "Mean Anomaly(deg)": -307.18846312722906,
        "RAAN(deg)": 339.99747970516154,
        "Satellite Name": "Test1 1499",
        "Satellite Number": 1499,
        "Semi-Major Axis(m)": 6980739.136638005,
        "Time(s)": 60
    },
    {
        "Altitude(m)": 608591.901269409,
        "Argument of Periapsis(deg)": 0.0007293262139307483,
        "Eccentricity": 0.0,
        "Inclination(deg)": 60.0,
        "Latitude(deg)": 44.19513895300934,
        "Longitude(deg)": -86.32618962511249,
        "Mean Anomaly(deg)": -306.5683569817672,
        "RAAN(deg)": 339.99705965602186,
        "Satellite Name": "Test1 1499",
        "Satellite Number": 1499,
        "Semi-Major Axis(m)": 6980739.136638005,
        "Time(s)": 70
    },
    {
        "Altitude(m)": 608691.8441273291,
        "Argument of Periapsis(deg)": 0.0008335156730637124,
        "Eccentricity": 0.0,
        "Inclination(deg)": 60.0,
        "Latitude(deg)": 44.639792451676094,
        "Longitude(deg)": -85.76296722114606,
        "Mean Anomaly(deg)": -305.94825083630536,
        "RAAN(deg)": 339.9966396068821,
        "Satellite Name": "Test1 1499",
        "Satellite Number": 1499,
        "Semi-Major Axis(m)": 6980739.136638005,
        "Time(s)": 80
    },
    {
        "Altitude(m)": 608791.3999144876,
        "Argument of Periapsis(deg)": 0.0009377051321966765,
        "Eccentricity": 0.0,
        "Inclination(deg)": 60.0,
        "Latitude(deg)": 45.08116025556475,
        "Longitude(deg)": -85.19048169267803,
        "Mean Anomaly(deg)": -305.32814469084354,
        "RAAN(deg)": 339.99621955774234,
        "Satellite Name": "Test1 1499",
        "Satellite Number": 1499,
        "Semi-Major Axis(m)": 6980739.136638005,
        "Time(s)": 90
    },
    {
        "Altitude(m)": 608890.5076463239,
        "Argument of Periapsis(deg)": 0.0010418945913296407,
        "Eccentricity": 0.0,
        "Inclination(deg)": 60.0,
        "Latitude(deg)": 45.51914210314485,
        "Longitude(deg)": -84.60851553376284,
        "Mean Anomaly(deg)": -304.7080385453817,
        "RAAN(deg)": 339.99579950860254,
        "Satellite Name": "Test1 1499",
        "Satellite Number": 1499,
        "Semi-Major Axis(m)": 6980739.136638005,
        "Time(s)": 100
    },
    {
        "Altitude(m)": 608989.1067795828,
        "Argument of Periapsis(deg)": 0.0011460840504626045,
        "Eccentricity": 0.0,
        "Inclination(deg)": 60.0,
        "Latitude(deg)": 45.9536346246109,
        "Longitude(deg)": -84.01684947086764,
        "Mean Anomaly(deg)": -304.0879323999199,
        "RAAN(deg)": 339.99537945946287,
        "Satellite Name": "Test1 1499",
        "Satellite Number": 1499,
        "Semi-Major Axis(m)": 6980739.136638005,
        "Time(s)": 110
    },
    {
        "Altitude(m)": 609087.137242084,
        "Argument of Periapsis(deg)": 0.0012502735095955685,
        "Eccentricity": 0.0,
        "Inclination(deg)": 60.0,
        "Latitude(deg)": 46.38453126368313,
        "Longitude(deg)": -83.41526222734744,
        "Mean Anomaly(deg)": -303.46782625445803,
        "RAAN(deg)": 339.9949594103231,
        "Satellite Name": "Test1 1499",
        "Satellite Number": 1499,
        "Semi-Major Axis(m)": 6980739.136638005,
        "Time(s)": 120
    },
    {
        "Altitude(m)": 609184.5394621484,
        "Argument of Periapsis(deg)": 0.0013544629687285324,
        "Eccentricity": 0.0,
        "Inclination(deg)": 60.0,
        "Latitude(deg)": 46.8117222011429,
        "Longitude(deg)": -82.80353032346872,
        "Mean Anomaly(deg)": -302.8477201089962,
        "RAAN(deg)": 339.99453936118334,
        "Satellite Name": "Test1 1499",
        "Satellite Number": 1499,
        "Semi-Major Axis(m)": 6980739.136638005,
        "Time(s)": 130
    },
    {
        "Altitude(m)": 609281.2543978086,
        "Argument of Periapsis(deg)": 0.0014586524278614966,
        "Eccentricity": 0.0,
        "Inclination(deg)": 60.0,
        "Latitude(deg)": 47.235094280637675,
        "Longitude(deg)": -82.18142942757132,
        "Mean Anomaly(deg)": -302.22761396353434,
        "RAAN(deg)": 339.9941193120436,
        "Satellite Name": "Test1 1499",
        "Satellite Number": 1499,
        "Semi-Major Axis(m)": 6980739.136638005,
        "Time(s)": 140
    },
    {
        "Altitude(m)": 609377.2235656594,
        "Argument of Periapsis(deg)": 0.0015628418869944607,
        "Eccentricity": 0.0,
        "Inclination(deg)": 60.0,
        "Latitude(deg)": 47.65453093735286,
        "Longitude(deg)": -81.54873423543319,
        "Mean Anomaly(deg)": -301.6075078180726,
        "RAAN(deg)": 339.9936992629039,
        "Satellite Name": "Test1 1499",
        "Satellite Number": 1499,
        "Semi-Major Axis(m)": 6980739.136638005,
        "Time(s)": 150
    },
    {
        "Altitude(m)": 609472.3890694472,
        "Argument of Periapsis(deg)": 0.0016670313461274247,
        "Eccentricity": 0.0,
        "Inclination(deg)": 60.0,
        "Latitude(deg)": 48.06991213020866,
        "Longitude(deg)": -80.90521839359616,
        "Mean Anomaly(deg)": -300.9874016726107,
        "RAAN(deg)": 339.99327921376414,
        "Satellite Name": "Test1 1499",
        "Satellite Number": 1499,
        "Semi-Major Axis(m)": 6980739.136638005,
        "Time(s)": 160
    },
    {
        "Altitude(m)": 609566.6936282973,
        "Argument of Periapsis(deg)": 0.0017712208052603888,
        "Eccentricity": 0.0,
        "Inclination(deg)": 60.0,
        "Latitude(deg)": 48.481114278303664,
        "Longitude(deg)": -80.25065598246796,
        "Mean Anomaly(deg)": -300.3672955271488,
        "RAAN(deg)": 339.9928591646244,
        "Satellite Name": "Test1 1499",
        "Satellite Number": 1499,
        "Semi-Major Axis(m)": 6980739.136638005,
        "Time(s)": 170
    },
    {
        "Altitude(m)": 609660.0806046374,
        "Argument of Periapsis(deg)": 0.001875410264393353,
        "Eccentricity": 0.0,
        "Inclination(deg)": 60.0,
        "Latitude(deg)": 48.88801020239838,
        "Longitude(deg)": -79.58482153643958,
        "Mean Anomaly(deg)": -299.74718938168706,
        "RAAN(deg)": 339.9924391154846,
        "Satellite Name": "Test1 1499",
        "Satellite Number": 1499,
        "Semi-Major Axis(m)": 6980739.136638005,
        "Time(s)": 180
    },
    {
        "Altitude(m)": 609752.4940317441,
        "Argument of Periapsis(deg)": 0.0019795997235263173,
        "Eccentricity": 0.0,
        "Inclination(deg)": 60.0,
        "Latitude(deg)": 49.29046907230184,
        "Longitude(deg)": -78.90749011687629,
        "Mean Anomaly(deg)": -299.1270832362252,
        "RAAN(deg)": 339.99201906634494,
        "Satellite Name": "Test1 1499",
        "Satellite Number": 1499,
        "Semi-Major Axis(m)": 6980739.136638005,
        "Time(s)": 190
    }
]